OBJECT_NAME,OBJECT_ID,EPOCH,MEAN_MOTION,ECCENTRICITY,INCLINATION,RA_OF_ASC_NODE,ARG_OF_PERICENTER,MEAN_ANOMALY,EPHEMERIS_TYPE,CLASSIFICATION_TYPE,NORAD_CAT_ID,ELEMENT_SET_NO,REV_AT_EPOCH,BSTAR,MEAN_MOTION_DOT,MEAN_MOTION_DDOT
INTELSAT 23 (IS-23),2012-057A,2026-07-15T18:15:00.376128,1.00268418,.0000465,0.0181,24.4123,210.6040,279.3481,0,U,38867,999,5024,0,-.295E-5,0
BEIDOU-2 G6,2012-059A,2026-07-15T18:53:40.502112,1.00273617,.0008744,4.4912,73.2081,327.1453,260.6814,0,U,38953,999,5019,0,-.188E-5,0
LUCH-5B,2012-061A,2026-07-15T20:08:09.074688,1.00270379,.0003904,10.5439,49.5918,147.4245,22.4232,0,U,38977,999,4989,0,-.152E-5,0
YAMAL 300K,2012-061B,2026-07-15T17:39:41.260608,1.00268724,.000061,0.0220,75.5118,163.6295,142.3135,0,U,38978,999,4991,0,0,0
STAR ONE C3,2012-062A,2026-07-15T18:08:45.972960,1.00270856,.0002185,0.0257,58.3043,65.3146,7.1849,0,U,38991,999,5005,0,0,0
EUTELSAT 21B,2012-062B,2026-07-15T20:18:53.045856,1.00270603,.0003248,0.0673,14.6386,106.9602,138.3664,0,U,38992,999,5011,0,.119E-5,0
ECHOSTAR 16,2012-065A,2026-07-15T02:58:49.534752,1.00269664,.00021365,0.0165,61.2237,47.2692,167.6845,0,U,39008,999,4992,0,-.291E-5,0
ZHONGXING-12,2012-067A,2026-07-15T18:38:38.657184,1.00271472,.0002591,0.0355,93.9171,19.4857,187.3711,0,U,39017,999,4979,0,-.217E-5,0
EUTELSAT 70B,2012-069A,2026-07-15T18:50:10.836096,1.00271434,.0003637,0.0607,2.0947,111.8727,172.6955,0,U,39020,999,4979,0,-.54E-6,0
YAMAL 402,2012-070A,2026-07-15T20:28:26.901696,1.00271677,.0003595,1.3364,83.8005,26.8007,185.0899,0,U,39022,999,4968,0,.75E-6,0
SKYNET 5D,2012-075A,2026-07-15T17:02:30.619104,1.00270386,.000341,0.0679,359.2836,124.6194,118.0177,0,U,39034,999,4944,0,.89E-6,0
MEXSAT 3,2012-075B,2026-07-15T14:32:06.203040,1.00268817,.0001047,0.0206,59.7846,49.2916,287.6227,0,U,39035,999,733,0,0,0
TDRS 11,2013-004A,2026-07-15T17:40:26.190336,1.00279613,.0004496,3.5623,31.7038,31.9814,320.8717,0,U,39070,999,4697,0,.7E-6,0
AMAZONAS 3,2013-006A,2026-07-15T18:12:45.591264,1.00272182,.0003315,0.0347,226.1206,286.1486,353.5162,0,U,39078,999,4520,0,-.293E-5,0
AZERSPACE 1,2013-006B,2026-07-15T20:25:57.141120,1.00269791,.0001841,0.0239,52.5481,97.0729,136.5507,0,U,39079,999,4909,0,0,0
SBIRS GEO-2 (USA 241),2013-011A,2026-07-15T13:07:54.051168,1.00271160,.0002011,4.5488,52.5055,55.0231,333.0391,0,U,39120,999,4882,0,-.298E-5,0
EUTELSAT 117 WEST A,2013-012A,2026-07-15T16:14:01.105152,1.00274192,.0002811,0.0496,272.0693,207.0795,301.0784,0,U,39122,999,4871,0,-.23E-6,0
ANIK G1,2013-014A,2026-07-15T20:41:59.828928,1.00271470,.0001689,0.0459,240.4893,244.9479,11.4547,0,U,39127,999,4854,0,-.84E-6,0
ZHONGXING-11,2013-020A,2026-07-15T20:40:42.933792,1.00269343,.0001968,0.0567,276.6014,165.6636,259.4956,0,U,39157,999,4818,0,-.3E-5,0
EUTELSAT 7B,2013-022A,2026-07-15T18:32:08.117088,1.00269556,.0003263,0.0694,338.9937,66.9395,172.7181,0,U,39163,999,4823,0,.37E-6,0
WGS F5 (USA 243),2013-024A,2026-07-15T18:15:07.864416,1.00268555,.000022,0.0235,64.4254,196.7402,253.7290,0,U,39168,999,4746,0,0,0
SES-6,2013-026A,2026-07-15T18:18:37.526976,1.00272769,.0002571,0.0228,338.4929,116.3292,72.9343,0,U,39172,999,4801,0,-.271E-5,0
IRNSS-1A,2013-034A,2026-07-10T17:17:25.712736,1.00281941,.0017567,35.7704,63.5328,183.4462,356.2994,0,U,39199,999,4760,0,.47E-6,0
MUOS-2,2013-036A,2026-07-15T17:36:41.547744,1.00272485,.0052741,5.0504,45.5542,176.3655,147.7838,0,U,39206,999,4747,0,-.25E-6,0
ALPHASAT,2013-038A,2026-07-15T20:19:30.487296,1.00270092,.0002156,2.9993,1.1227,136.5682,125.7414,0,U,39215,999,4430,0,.123E-5,0
INSAT-3D,2013-038B,2026-07-15T19:07:05.303424,1.00268236,.0000531,1.9979,82.1766,79.4469,188.2762,0,U,39216,999,4736,0,-.351E-5,0
WGS F6 (USA 244),2013-041A,2026-07-15T14:26:14.263872,1.00272417,.0000194,0.0178,39.7752,95.3134,239.7234,0,U,39222,999,4634,0,.79E-6,0
ES'HAIL 1,2013-044A,2026-07-14T13:32:21.157728,1.00274643,.0002153,0.0508,343.0754,133.9068,44.0708,0,U,39233,999,4690,0,.136E-5,0
GSAT-7,2013-044B,2026-07-15T18:51:10.739808,1.00271384,.000319,0.1525,89.5439,176.5886,24.2383,0,U,39234,999,4554,0,-.87E-6,0
AMOS-4,2013-045A,2026-07-15T18:48:40.980096,1.00270750,.0002165,0.0273,252.6891,191.9218,196.1816,0,U,39237,999,4724,0,-.3E-7,0
AEHF-3 (USA 246),2013-050A,2026-07-15T16:12:08.784288,1.00271162,.0088486,5.3616,66.9217,187.6912,157.6637,0,U,39256,999,4593,0,.16E-6,0
ASTRA 2E,2013-056A,2026-07-15T18:38:15.031104,1.00269252,.0002675,0.0756,313.9961,154.3232,133.3347,0,U,39285,999,4670,0,.14E-5,0
