INTELSAT 23 (IS-23)     
1 38867U 12057A   26196.76042102 -.00000295  00000+0  00000+0 0  9998
2 38867   0.0181  24.4123 0000465 210.6040 279.3481  1.00268418 50243
BEIDOU-2 G6             
1 38953U 12059A   26196.78727433 -.00000188  00000+0  00000+0 0  9996
2 38953   4.4912  73.2081 0008744 327.1453 260.6814  1.00273617 50198
LUCH-5B                 
1 38977U 12061A   26196.83899392 -.00000152  00000+0  00000+0 0  9996
2 38977  10.5439  49.5918 0003904 147.4245  22.4232  1.00270379 49891
YAMAL 300K              
1 38978U 12061B   26196.73589422  .00000000  00000+0  00000+0 0  9997
2 38978   0.0220  75.5118 0000610 163.6295 142.3135  1.00268724 49919
STAR ONE C3             
1 38991U 12062A   26196.75608765  .00000000  00000+0  00000+0 0  9997
2 38991   0.0257  58.3043 0002185  65.3146   7.1849  1.00270856 50058
EUTELSAT 21B            
1 38992U 12062B   26196.84644729  .00000119  00000+0  00000+0 0  9999
2 38992   0.0673  14.6386 0003248 106.9602 138.3664  1.00270603 50115
ECHOSTAR 16             
1 39008U 12065A   26196.12418443 -.00000291  00000+0  00000+0 0  9996
2 39008   0.0165  61.2237 0002136  47.2692 167.6845  1.00269664 49922
ZHONGXING-12            
1 39017U 12067A   26196.77683631 -.00000217  00000+0  00000+0 0  9990
2 39017   0.0355  93.9171 0002591  19.4857 187.3711  1.00271472 49797
EUTELSAT 70B            
1 39020U 12069A   26196.78484764 -.00000054  00000+0  00000+0 0  9992
2 39020   0.0607   2.0947 0003637 111.8727 172.6955  1.00271434 49793
YAMAL 402               
1 39022U 12070A   26196.85308914  .00000075  00000+0  00000+0 0  9998
2 39022   1.3364  83.8005 0003595  26.8007 185.0899  1.00271677 49682
SKYNET 5D               
1 39034U 12075A   26196.71007661  .00000089  00000+0  00000+0 0  9991
2 39034   0.0679 359.2836 0003410 124.6194 118.0177  1.00270386 49447
MEXSAT 3                
1 39035U 12075B   26196.60562735  .00000000  00000+0  00000+0 0  9991
2 39035   0.0206  59.7846 0001047  49.2916 287.6227  1.00268817  7332
TDRS 11                 
1 39070U 13004A   26196.73641424  .00000070  00000+0  00000+0 0  9997
2 39070   3.5623  31.7038 0004496  31.9814 320.8717  1.00279613 46974
AMAZONAS 3              
1 39078U 13006A   26196.75886101 -.00000293  00000+0  00000+0 0  9990
2 39078   0.0347 226.1206 0003315 286.1486 353.5162  1.00272182 45208
AZERSPACE 1             
1 39079U 13006B   26196.85135580  .00000000  00000+0  00000+0 0  9995
2 39079   0.0239  52.5481 0001841  97.0729 136.5507  1.00269791 49091
SBIRS GEO-2 (USA 241)   
1 39120U 13011A   26196.54715337 -.00000298  00000+0  00000+0 0  9998
2 39120   4.5488  52.5055 0002011  55.0231 333.0391  1.00271160 48820
EUTELSAT 117 WEST A     
1 39122U 13012A   26196.67640168 -.00000023  00000+0  00000+0 0  9990
2 39122   0.0496 272.0693 0002811 207.0795 301.0784  1.00274192 48718
ANIK G1                 
1 39127U 13014A   26196.86249802 -.00000084  00000+0  00000+0 0  9995
2 39127   0.0459 240.4893 0001689 244.9479  11.4547  1.00271470 48540
ZHONGXING-11            
1 39157U 13020A   26196.86160803 -.00000300  00000+0  00000+0 0  9999
2 39157   0.0567 276.6014 0001968 165.6636 259.4956  1.00269343 48187
EUTELSAT 7B             
1 39163U 13022A   26196.77231617  .00000037  00000+0  00000+0 0  9996
2 39163   0.0694 338.9937 0003263  66.9395 172.7181  1.00269556 48235
WGS F5 (USA 243)        
1 39168U 13024A   26196.76050769  .00000000  00000+0  00000+0 0  9999
2 39168   0.0235  64.4254 0000220 196.7402 253.7290  1.00268555 47468
SES-6                   
1 39172U 13026A   26196.76293434 -.00000271  00000+0  00000+0 0  9995
2 39172   0.0228 338.4929 0002571 116.3292  72.9343  1.00272769 48018
IRNSS-1A                
1 39199U 13034A   26191.72043649  .00000047  00000+0  00000+0 0  9995
2 39199  35.7704  63.5328 0017567 183.4462 356.2994  1.00281941 47601
MUOS-2                  
1 39206U 13036A   26196.73381421 -.00000025  00000+0  00000+0 0  9992
2 39206   5.0504  45.5542 0052741 176.3655 147.7838  1.00272485 47472
ALPHASAT                
1 39215U 13038A   26196.84688064  .00000123  00000+0  00000+0 0  9997
2 39215   2.9993   1.1227 0002156 136.5682 125.7414  1.00270092 44308
INSAT-3D                
1 39216U 13038B   26196.79658916 -.00000351  00000+0  00000+0 0  9999
2 39216   1.9979  82.1766 0000531  79.4469 188.2762  1.00268236 47368
WGS F6 (USA 244)        
1 39222U 13041A   26196.60155398  .00000079  00000+0  00000+0 0  9992
2 39222   0.0178  39.7752 0000194  95.3134 239.7234  1.00272417 46349
ES'HAIL 1               
1 39233U 13044A   26195.56413377  .00000136  00000+0  00000+0 0  9999
2 39233   0.0508 343.0754 0002153 133.9068  44.0708  1.00274643 46901
GSAT-7                  
1 39234U 13044B   26196.78554097 -.00000087  00000+0  00000+0 0  9996
2 39234   0.1525  89.5439 0003190 176.5886  24.2383  1.00271384 45544
AMOS-4                  
1 39237U 13045A   26196.78380764 -.00000003  00000+0  00000+0 0  9996
2 39237   0.0273 252.6891 0002165 191.9218 196.1816  1.00270750 47247
AEHF-3 (USA 246)        
1 39256U 13050A   26196.67510167  .00000016  00000+0  00000+0 0  9996
2 39256   5.3616  66.9217 0088486 187.6912 157.6637  1.00271162 45933
ASTRA 2E                
1 39285U 13056A   26196.77656286  .00000140  00000+0  00000+0 0  9996
2 39285   0.0756 313.9961 0002675 154.3232 133.3347  1.00269252 46707
